{
  "norad_id": 65957,
  "name": "KUIPER-00128",
  "history": [
    {
      "epoch": "2026-03-28T16:18:14.679648",
      "apogee_km": 630.0254240908216,
      "perigee_km": 629.0174425017767,
      "latitude_deg": -43.307415421479135,
      "longitude_deg": 120.91631071991287,
      "semi_major_axis_km": 7007.658433296299,
      "eccentricity": 7.192e-05,
      "inclination_deg": 51.9,
      "raan_deg": 269.1487,
      "arg_perigee_deg": 107.1491,
      "mean_anomaly_deg": 252.955,
      "mean_motion_rev_day": 14.79937497
    }
  ]
}